{"fetched_at":"2026-07-14T06:34:37.988Z","source":"https://celestrak.org/NORAD/elements/gp.php?NAME=CENTAURI&FORMAT=JSON","constellation":"myriota","records":[{"OBJECT_NAME":"CENTAURI-1","OBJECT_ID":"2018-099BD","EPOCH":"2026-07-13T15:58:16.356576","CLASSIFICATION_TYPE":"U","MEAN_MOTION":15.16615743,"ECCENTRICITY":0.0012821,"INCLINATION":97.4209,"RA_OF_ASC_NODE":245.818,"ARG_OF_PERICENTER":230.6125,"MEAN_ANOMALY":129.3974,"EPHEMERIS_TYPE":0,"NORAD_CAT_ID":43809,"ELEMENT_SET_NO":999,"REV_AT_EPOCH":41651,"BSTAR":0.00014019,"MEAN_MOTION_DOT":0.00002678,"MEAN_MOTION_DDOT":0},{"OBJECT_NAME":"CENTAURI-6","OBJECT_ID":"2024-066K","EPOCH":"2026-07-13T04:54:39.725280","CLASSIFICATION_TYPE":"U","MEAN_MOTION":15.06023681,"ECCENTRICITY":0.0001562,"INCLINATION":45.606,"RA_OF_ASC_NODE":118.598,"ARG_OF_PERICENTER":247.5002,"MEAN_ANOMALY":112.5717,"EPHEMERIS_TYPE":0,"NORAD_CAT_ID":59451,"ELEMENT_SET_NO":999,"REV_AT_EPOCH":12404,"BSTAR":0.00019291,"MEAN_MOTION_DOT":0.00002612,"MEAN_MOTION_DDOT":0},{"OBJECT_NAME":"CENTAURI-7","OBJECT_ID":"2025-009DD","EPOCH":"2026-07-13T18:46:16.691232","CLASSIFICATION_TYPE":"U","MEAN_MOTION":14.97970527,"ECCENTRICITY":0.0002853,"INCLINATION":97.7107,"RA_OF_ASC_NODE":274.7202,"ARG_OF_PERICENTER":105.0562,"MEAN_ANOMALY":255.0976,"EPHEMERIS_TYPE":0,"NORAD_CAT_ID":62708,"ELEMENT_SET_NO":999,"REV_AT_EPOCH":8144,"BSTAR":0.00018932,"MEAN_MOTION_DOT":0.00002175,"MEAN_MOTION_DDOT":0},{"OBJECT_NAME":"CENTAURI-8","OBJECT_ID":"2025-009DK","EPOCH":"2026-07-13T17:51:18.792000","CLASSIFICATION_TYPE":"U","MEAN_MOTION":14.97921874,"ECCENTRICITY":0.0002442,"INCLINATION":97.7042,"RA_OF_ASC_NODE":274.5047,"ARG_OF_PERICENTER":79.3538,"MEAN_ANOMALY":280.7959,"EPHEMERIS_TYPE":0,"NORAD_CAT_ID":62714,"ELEMENT_SET_NO":999,"REV_AT_EPOCH":8145,"BSTAR":0.00012999,"MEAN_MOTION_DOT":0.00001473,"MEAN_MOTION_DDOT":0}]}
