CENTAURI-1              
1 43809U 18099BD  26194.66546709  .00002678  00000+0  14019-3 0  9996
2 43809  97.4209 245.8180 0012821 230.6125 129.3974 15.16615743416519
CENTAURI-6              
1 59451U 24066K   26194.20462645  .00002612  00000+0  19291-3 0  9998
2 59451  45.6060 118.5980 0001562 247.5002 112.5717 15.06023681124040
CENTAURI-7              
1 62708U 25009DD  26194.78213763  .00002175  00000+0  18932-3 0  9998
2 62708  97.7107 274.7202 0002853 105.0562 255.0976 14.97970527 81449
CENTAURI-8              
1 62714U 25009DK  26194.74396750  .00001473  00000+0  12999-3 0  9996
2 62714  97.7042 274.5047 0002442  79.3538 280.7959 14.97921874 81457
